start=new Date('2021-11-20T00:00:00.000Z').valueOf();
sats=[{"RCS_SIZE":"LARGE","DECAY_DATE":null,"TLE_LINE2":"2 46584  53.0553   9.8953 0001531  59.9854 300.1287 15.06386145 62978","PERIAPSIS":"546.196","OBJECT_TYPE":"PAYLOAD","MEAN_MOTION":"15.06386145","REF_FRAME":"TEME","MEAN_ELEMENT_THEORY":"SGP4","MEAN_MOTION_DDOT":"0.0000000000000","EPOCH":"2021-11-19T12:19:20.828064","PERIOD":"95.593","GP_ID":"190075530","ECCENTRICITY":"0.00015310","CLASSIFICATION_TYPE":"U","APOAPSIS":"548.316","OBJECT_NAME":"STARLINK-1732","RA_OF_ASC_NODE":"9.8953","MEAN_MOTION_DOT":"-0.00001342","SEMIMAJOR_AXIS":"6925.391","NORAD_CAT_ID":"46584","ELEMENT_SET_NO":"999","TIME_SYSTEM":"UTC","CENTER_NAME":"EARTH","SITE":"AFETR","TLE_LINE1":"1 46584U 20070BE  21323.51343551 -.00001342  00000-0 -71222-4 0  9994","INCLINATION":"53.0553","OBJECT_ID":"2020-070BE","ARG_OF_PERICENTER":"59.9854","REV_AT_EPOCH":"6297","FILE":"3219209","COUNTRY_CODE":"US","LAUNCH_DATE":"2020-10-06","MEAN_ANOMALY":"300.1287","EPHEMERIS_TYPE":"0","BSTAR":"-0.00007122200000"},{"MEAN_MOTION_DOT":"0.00000359","RA_OF_ASC_NODE":"9.8281","OBJECT_NAME":"STARLINK-1736","CLASSIFICATION_TYPE":"U","APOAPSIS":"548.218","TIME_SYSTEM":"UTC","ELEMENT_SET_NO":"999","NORAD_CAT_ID":"46585","SEMIMAJOR_AXIS":"6925.390","INCLINATION":"53.0557","TLE_LINE1":"1 46585U 20070BF  21323.53186001  .00000359  00000-0  43022-4 0  9994","SITE":"AFETR","CENTER_NAME":"EARTH","EPHEMERIS_TYPE":"0","BSTAR":"0.00004302200000","LAUNCH_DATE":"2020-10-06","COUNTRY_CODE":"US","MEAN_ANOMALY":"294.5428","FILE":"3219209","REV_AT_EPOCH":"6297","ARG_OF_PERICENTER":"65.5707","OBJECT_ID":"2020-070BF","DECAY_DATE":null,"RCS_SIZE":"LARGE","PERIAPSIS":"546.291","TLE_LINE2":"2 46585  53.0557   9.8281 0001391  65.5707 294.5428 15.06386574 62970","GP_ID":"190075281","PERIOD":"95.593","EPOCH":"2021-11-19T12:45:52.704864","MEAN_MOTION_DDOT":"0.0000000000000","MEAN_MOTION":"15.06386574","MEAN_ELEMENT_THEORY":"SGP4","REF_FRAME":"TEME","OBJECT_TYPE":"PAYLOAD","ECCENTRICITY":"0.00013910"},{"RCS_SIZE":"LARGE","DECAY_DATE":null,"TLE_LINE2":"2 46586  53.0564  11.0657 0001346  72.3469 287.7667 15.06403216 62930","PERIAPSIS":"546.272","OBJECT_TYPE":"PAYLOAD","MEAN_ELEMENT_THEORY":"SGP4","MEAN_MOTION":"15.06403216","REF_FRAME":"TEME","MEAN_MOTION_DDOT":"0.0000000000000","EPOCH":"2021-11-19T06:07:46.870176","PERIOD":"95.592","GP_ID":"190074028","ECCENTRICITY":"0.00013460","CLASSIFICATION_TYPE":"U","APOAPSIS":"548.136","OBJECT_NAME":"STARLINK-1737","RA_OF_ASC_NODE":"11.0657","MEAN_MOTION_DOT":"0.00000849","SEMIMAJOR_AXIS":"6925.339","NORAD_CAT_ID":"46586","ELEMENT_SET_NO":"999","TIME_SYSTEM":"UTC","CENTER_NAME":"EARTH","SITE":"AFETR","TLE_LINE1":"1 46586U 20070BG  21323.25540359  .00000849  00000-0  75902-4 0  9990","INCLINATION":"53.0564","OBJECT_ID":"2020-070BG","ARG_OF_PERICENTER":"72.3469","REV_AT_EPOCH":"6293","FILE":"3219209","MEAN_ANOMALY":"287.7667","LAUNCH_DATE":"2020-10-06","COUNTRY_CODE":"US","BSTAR":"0.00007590200000","EPHEMERIS_TYPE":"0"},{"CLASSIFICATION_TYPE":"U","APOAPSIS":"548.178","OBJECT_NAME":"STARLINK-1746","RA_OF_ASC_NODE":"9.9443","MEAN_MOTION_DOT":"-0.00001646","NORAD_CAT_ID":"46588","SEMIMAJOR_AXIS":"6925.362","ELEMENT_SET_NO":"999","TIME_SYSTEM":"UTC","CENTER_NAME":"EARTH","SITE":"AFETR","TLE_LINE1":"1 46588U 20070BJ  21323.50237652 -.00001646  00000-0 -91619-4 0  9990","INCLINATION":"53.0553","OBJECT_ID":"2020-070BJ","ARG_OF_PERICENTER":"75.0323","REV_AT_EPOCH":"6297","FILE":"3219209","LAUNCH_DATE":"2020-10-06","COUNTRY_CODE":"US","MEAN_ANOMALY":"285.0818","BSTAR":"-0.00009161900000","EPHEMERIS_TYPE":"0","RCS_SIZE":"LARGE","DECAY_DATE":null,"PERIAPSIS":"546.275","TLE_LINE2":"2 46588  53.0553   9.9443 0001374  75.0323 285.0818 15.06395658 62972","OBJECT_TYPE":"PAYLOAD","REF_FRAME":"TEME","MEAN_MOTION":"15.06395658","MEAN_ELEMENT_THEORY":"SGP4","MEAN_MOTION_DDOT":"0.0000000000000","EPOCH":"2021-11-19T12:03:25.331328","PERIOD":"95.592","GP_ID":"190074279","ECCENTRICITY":"0.00013740"},{"TLE_LINE2":"2 46589  53.0563   9.9831 0001421  60.1224 299.9906 15.06395675 62963","PERIAPSIS":"546.243","DECAY_DATE":null,"RCS_SIZE":"LARGE","ECCENTRICITY":"0.00014210","PERIOD":"95.592","GP_ID":"190075031","OBJECT_TYPE":"PAYLOAD","MEAN_MOTION":"15.06395675","MEAN_ELEMENT_THEORY":"SGP4","REF_FRAME":"TEME","MEAN_MOTION_DDOT":"0.0000000000000","EPOCH":"2021-11-19T11:52:47.766720","ELEMENT_SET_NO":"999","TIME_SYSTEM":"UTC","SEMIMAJOR_AXIS":"6925.362","NORAD_CAT_ID":"46589","RA_OF_ASC_NODE":"9.9831","MEAN_MOTION_DOT":"-0.00000015","APOAPSIS":"548.211","CLASSIFICATION_TYPE":"U","OBJECT_NAME":"STARLINK-1749","LAUNCH_DATE":"2020-10-06","COUNTRY_CODE":"US","MEAN_ANOMALY":"299.9906","EPHEMERIS_TYPE":"0","BSTAR":"0.00001791300000","OBJECT_ID":"2020-070BK","ARG_OF_PERICENTER":"60.1224","REV_AT_EPOCH":"6296","FILE":"3219209","SITE":"AFETR","TLE_LINE1":"1 46589U 20070BK  21323.49499730 -.00000015  00000-0  17913-4 0  9999","INCLINATION":"53.0563","CENTER_NAME":"EARTH"},{"RCS_SIZE":"LARGE","DECAY_DATE":null,"TLE_LINE2":"2 46590  53.0521 289.2249 0001217 109.6721 250.4414 15.42152839 64083","PERIAPSIS":"438.929","MEAN_MOTION_DDOT":"0.0000000000000","EPOCH":"2021-11-19T07:29:58.490592","OBJECT_TYPE":"PAYLOAD","REF_FRAME":"TEME","MEAN_MOTION":"15.42152839","MEAN_ELEMENT_THEORY":"SGP4","GP_ID":"190075781","PERIOD":"93.376","ECCENTRICITY":"0.00012170","OBJECT_NAME":"STARLINK-1754","APOAPSIS":"440.588","CLASSIFICATION_TYPE":"U","RA_OF_ASC_NODE":"289.2249","MEAN_MOTION_DOT":"0.00006484","SEMIMAJOR_AXIS":"6817.894","NORAD_CAT_ID":"46590","ELEMENT_SET_NO":"999","TIME_SYSTEM":"UTC","CENTER_NAME":"EARTH","INCLINATION":"53.0521","SITE":"AFETR","TLE_LINE1":"1 46590U 20070BL  21323.31248253  .00006484  00000-0  15836-3 0  9990","REV_AT_EPOCH":"6408","FILE":"3219209","OBJECT_ID":"2020-070BL","ARG_OF_PERICENTER":"109.6721","COUNTRY_CODE":"US","LAUNCH_DATE":"2020-10-06","MEAN_ANOMALY":"250.4414","BSTAR":"0.00015836000000","EPHEMERIS_TYPE":"0"},{"GP_ID":"190074528","PERIOD":"95.592","EPOCH":"2021-11-19T10:01:20.349696","MEAN_MOTION_DDOT":"0.0000000000000","MEAN_MOTION":"15.06395107","REF_FRAME":"TEME","MEAN_ELEMENT_THEORY":"SGP4","OBJECT_TYPE":"PAYLOAD","ECCENTRICITY":"0.00013230","DECAY_DATE":null,"RCS_SIZE":"LARGE","PERIAPSIS":"546.312","TLE_LINE2":"2 46591  53.0553  10.3469 0001323  61.4287 298.6835 15.06395107 62015","INCLINATION":"53.0553","TLE_LINE1":"1 46591U 20070BM  21323.41759664 -.00001717  00000-0 -96426-4 0  9996","SITE":"AFETR","CENTER_NAME":"EARTH","BSTAR":"-0.00009642600000","EPHEMERIS_TYPE":"0","COUNTRY_CODE":"US","LAUNCH_DATE":"2020-10-06","MEAN_ANOMALY":"298.6835","FILE":"3219209","REV_AT_EPOCH":"6201","ARG_OF_PERICENTER":"61.4287","OBJECT_ID":"2020-070BM","MEAN_MOTION_DOT":"-0.00001717","RA_OF_ASC_NODE":"10.3469","OBJECT_NAME":"STARLINK-1755","APOAPSIS":"548.145","CLASSIFICATION_TYPE":"U","TIME_SYSTEM":"UTC","ELEMENT_SET_NO":"999","SEMIMAJOR_AXIS":"6925.364","NORAD_CAT_ID":"46591"},{"CENTER_NAME":"EARTH","INCLINATION":"53.0548","TLE_LINE1":"1 46671U 20073B   21323.35676430 -.00001280  00000-0 -67065-4 0  9992","SITE":"AFETR","FILE":"3219209","REV_AT_EPOCH":"6022","ARG_OF_PERICENTER":"87.4748","OBJECT_ID":"2020-073B","EPHEMERIS_TYPE":"0","BSTAR":"-0.00006706500000","COUNTRY_CODE":"US","LAUNCH_DATE":"2020-10-18","MEAN_ANOMALY":"272.6403","OBJECT_NAME":"STARLINK-1715","CLASSIFICATION_TYPE":"U","APOAPSIS":"548.203","MEAN_MOTION_DOT":"-0.00001280","RA_OF_ASC_NODE":"100.6071","NORAD_CAT_ID":"46671","SEMIMAJOR_AXIS":"6925.356","TIME_SYSTEM":"UTC","ELEMENT_SET_NO":"999","EPOCH":"2021-11-19T08:33:44.435520","MEAN_MOTION_DDOT":"0.0000000000000","MEAN_MOTION":"15.06397526","REF_FRAME":"TEME","MEAN_ELEMENT_THEORY":"SGP4","OBJECT_TYPE":"PAYLOAD","GP_ID":"190075789","PERIOD":"95.592","ECCENTRICITY":"0.00014180","RCS_SIZE":"LARGE","DECAY_DATE":null,"PERIAPSIS":"546.239","TLE_LINE2":"2 46671  53.0548 100.6071 0001418  87.4748 272.6403 15.06397526 60226"},{"APOAPSIS":"548.120","CLASSIFICATION_TYPE":"U","OBJECT_NAME":"STARLINK-1716","MEAN_MOTION_DOT":"-0.00000467","RA_OF_ASC_NODE":"94.8253","NORAD_CAT_ID":"46672","SEMIMAJOR_AXIS":"6925.372","TIME_SYSTEM":"UTC","ELEMENT_SET_NO":"999","CENTER_NAME":"EARTH","TLE_LINE1":"1 46672U 20073C   21323.52956170 -.00000467  00000-0 -12482-4 0  9993","SITE":"AFETR","INCLINATION":"53.0542","ARG_OF_PERICENTER":"91.3875","OBJECT_ID":"2020-073C","FILE":"3219209","REV_AT_EPOCH":"6032","EPHEMERIS_TYPE":"0","BSTAR":"-0.00001248200000","COUNTRY_CODE":"US","LAUNCH_DATE":"2020-10-18","MEAN_ANOMALY":"268.7260","RCS_SIZE":"LARGE","DECAY_DATE":null,"PERIAPSIS":"546.354","TLE_LINE2":"2 46672  53.0542  94.8253 0001275  91.3875 268.7260 15.06392367 60329","MEAN_MOTION":"15.06392367","REF_FRAME":"TEME","MEAN_ELEMENT_THEORY":"SGP4","OBJECT_TYPE":"PAYLOAD","EPOCH":"2021-11-19T12:42:34.130880","MEAN_MOTION_DDOT":"0.0000000000000","PERIOD":"95.593","GP_ID":"190074536","ECCENTRICITY":"0.00012750"},{"MEAN_MOTION_DOT":"-0.00001071","RA_OF_ASC_NODE":"110.2692","CLASSIFICATION_TYPE":"U","APOAPSIS":"548.260","OBJECT_NAME":"STARLINK-1717","TIME_SYSTEM":"UTC","ELEMENT_SET_NO":"999","SEMIMAJOR_AXIS":"6925.366","NORAD_CAT_ID":"46673","TLE_LINE1":"1 46673U 20073D   21323.43323503 -.00001071  00000-0 -53046-4 0  9995","SITE":"AFETR","INCLINATION":"53.0542","CENTER_NAME":"EARTH","EPHEMERIS_TYPE":"0","BSTAR":"-0.00005304600000","MEAN_ANOMALY":"279.9582","LAUNCH_DATE":"2020-10-18","COUNTRY_CODE":"US","ARG_OF_PERICENTER":"80.1574","OBJECT_ID":"2020-073D","FILE":"3219209","REV_AT_EPOCH":"6009","DECAY_DATE":null,"RCS_SIZE":"LARGE","PERIAPSIS":"546.202","TLE_LINE2":"2 46673  53.0542 110.2692 0001486  80.1574 279.9582 15.06394221 60092","PERIOD":"95.593","GP_ID":"190074787","MEAN_ELEMENT_THEORY":"SGP4","MEAN_MOTION":"15.06394221","REF_FRAME":"TEME","OBJECT_TYPE":"PAYLOAD","EPOCH":"2021-11-19T10:23:51.506592","MEAN_MOTION_DDOT":"0.0000000000000","ECCENTRICITY":"0.00014860"}];
